NORAD_CAT_ID,OBJECT_NAME,OBJECT_TYPE,EPOCH,MEAN_MOTION,ECCENTRICITY,INCLINATION,RA_OF_ASC_NODE,ARG_OF_PERICENTER,MEAN_ANOMALY,BSTAR,MEAN_MOTION_DOT,MEAN_MOTION_DDOT,TLE_LINE0,TLE_LINE1,TLE_LINE2,SEMIMAJOR_AXIS,PERIOD,APOGEE,PERIGEE,DECAYED
51813.0,STARLINK-3552,PAYLOAD,2022-07-12 22:00:00,15.08831061,0.000168,53.2137,205.6345,54.7797,121.2083,0.0024464,0.00038852,0.0,0 STARLINK-3552,1 51813U 22017AX  22193.91667824  .00038852  00000-0  24464-2 0  9998,2 51813  53.2137 205.6345 0001680  54.7797 121.2083 15.08831061  1304,6917.908,95.438,540.935,538.611,0.0
51813.0,STARLINK-3552,PAYLOAD,2022-07-13 14:00:01,15.08869199,0.0001841,53.2134,202.643,48.2396,150.9523,-0.0029282,-0.00046627,0.0,0 STARLINK-3552,1 51813U 22017AX  22194.58334491 -.00046627  00000-0 -29282-2 0  9997,2 51813  53.2134 202.6430 0001841  48.2396 150.9523 15.08869199  1306,6917.791,95.436,540.93,538.383,0.0
51813.0,STARLINK-3552,PAYLOAD,2022-07-13 22:00:00,15.08880247,0.0001754999999999,53.2159,201.1428,53.0946,157.6548,-0.0025101,-0.00040059,0.0,0 STARLINK-3552,1 51813U 22017AX  22194.91667824 -.00040059  00000-0 -25101-2 0  9992,2 51813  53.2159 201.1428 0001755  53.0946 157.6548 15.08880247 22696,6917.757,95.435,540.836,538.408,0.0
51813.0,STARLINK-3552,PAYLOAD,2022-07-14 04:00:00,15.08844025,0.0001774,53.2138,200.0236,51.7696,77.6661,-0.0019227,-0.00030761,0.0,0 STARLINK-3552,1 51813U 22017AX  22195.16667824 -.00030761  00000-0 -19227-2 0  9991,2 51813  53.2138 200.0236 0001774  51.7696  77.6661 15.08844025 22721,6917.868,95.437,540.96,538.506,0.0
51813.0,STARLINK-3552,PAYLOAD,2022-07-14 14:00:01,15.08839106,0.0001867,53.2138,198.1535,46.8603,187.0511,-0.00098927,-0.00015998,0.0,0 STARLINK-3552,1 51813U 22017AX  22195.58334491 -.00015998  00000-0 -98927-3 0  9998,2 51813  53.2138 198.1535 0001867  46.8603 187.0511 15.08839106  1301,6917.8830000000025,95.438,541.04,538.457,0.0
51813.0,STARLINK-3552,PAYLOAD,2022-07-14 22:00:00,15.08814271,0.0001763,53.2141,196.6554,52.9961,192.5095,0.0024219,0.0003844,0.0,0 STARLINK-3552,1 51813U 22017AX  22195.91667824  .00038440  00000-0  24219-2 0  9991,2 51813  53.2141 196.6554 0001763  52.9961 192.5095 15.08814271 22845,6917.959,95.439,541.044,538.604,0.0
51813.0,STARLINK-3552,PAYLOAD,2022-07-15 14:00:01,15.08852462,0.0001948,53.2146,193.664,47.8933,220.7811,-0.0014717,-0.00023642,0.0,0 STARLINK-3552,1 51813U 22017AX  22196.58334491 -.00023642  00000-0 -14717-2 0  9998,2 51813  53.2146 193.6640 0001948  47.8933 220.7811 15.08852462 22945,6917.842,95.437,541.055,538.36,0.0
51813.0,STARLINK-3552,PAYLOAD,2022-07-15 22:00:00,15.08826501,0.0001852,53.215,192.166,54.203,226.0796,0.0025242,0.00040099,0.0,0 STARLINK-3552,1 51813U 22017AX  22196.91667824  .00040099  00000-0  25242-2 0  9992,2 51813  53.2150 192.1660 0001852  54.2030 226.0796 15.08826501  1303,6917.922,95.438,541.068,538.505,0.0
51813.0,STARLINK-3552,PAYLOAD,2022-07-16 06:00:00,15.08852176,0.0002026,53.2152,190.6713,50.4936,241.3871,-0.0007578,-0.00012333,0.0,0 STARLINK-3552,1 51813U 22017AX  22197.25001157 -.00012333  00000-0 -75780-3 0  9996,2 51813  53.2152 190.6713 0002026  50.4936 241.3871 15.08852176 23040,6917.843000000003,95.437,541.11,538.307,0.0
51813.0,STARLINK-3552,PAYLOAD,2022-07-16 14:00:01,15.08868111,0.0002003,53.2154,189.1746,49.2242,254.2563,-0.0018029,-0.00028889,0.0,0 STARLINK-3552,1 51813U 22017AX  22197.58334491 -.00028889  00000-0 -18029-2 0  9997,2 51813  53.2154 189.1746 0002003  49.2242 254.2563 15.08868111  1304,6917.794,95.436,541.045,538.274,0.0
51813.0,STARLINK-3552,PAYLOAD,2022-07-16 22:00:00,15.08842099,0.0001881,53.2158,187.6768,55.7007,259.4031,0.0024104,0.00038285,0.0,0 STARLINK-3552,1 51813U 22017AX  22197.91667824  .00038285  00000-0  24104-2 0  9993,2 51813  53.2158 187.6768 0001881  55.7007 259.4031 15.08842099 23149,6917.874,95.437,541.04,538.438,0.0
51813.0,STARLINK-3552,PAYLOAD,2022-07-17 14:00:01,15.08856715,0.0001925,53.2158,184.6853,48.9007,289.4237,-0.0019858,-0.00031768,0.0,0 STARLINK-3552,1 51813U 22017AX  22198.58334491 -.00031768  00000-0 -19858-2 0  9999,2 51813  53.2158 184.6853 0001925  48.9007 289.4237 15.08856715 23246,6917.829000000002,95.436,541.026,538.363,0.0
51813.0,STARLINK-3552,PAYLOAD,2022-07-17 22:00:00,15.08828134,0.0001813,53.2161,183.1878,55.7327,294.1927,0.0023316,0.00037003,0.0,0 STARLINK-3552,1 51813U 22017AX  22198.91667824  .00037003  00000-0  23316-2 0  9995,2 51813  53.2161 183.1878 0001813  55.7327 294.1927 15.08828134  1304,6917.917,95.438,541.036,538.5269999999998,0.0
51813.0,STARLINK-3552,PAYLOAD,2022-07-18 06:00:00,15.08849691,0.0001977,53.216,181.6932,51.1779,310.3484,-0.00042886,-7.109e-05,0.0,0 STARLINK-3552,1 51813U 22017AX  22199.25001157 -.00007109  00000-0 -42886-3 0  9994,2 51813  53.2160 181.6932 0001977  51.1779 310.3484 15.08849691 23347,6917.851,95.437,541.0830000000002,538.3480000000002,0.0
51813.0,STARLINK-3552,PAYLOAD,2022-07-18 14:00:01,15.08878192,0.0001884,53.2157,180.1962,50.1572,322.9636,-0.0047218999999999,-0.00074738,0.0,0 STARLINK-3552,1 51813U 22017AX  22199.58334491 -.00074738  00000-0 -47219-2 0  9996,2 51813  53.2157 180.1962 0001884  50.1572 322.9636 15.08878192  1305,6917.764,95.435,540.932,538.325,0.0
51813.0,STARLINK-3552,PAYLOAD,2022-07-18 22:00:00,15.08816668,0.0001736,53.2159,178.6989,56.1528,328.5809,0.0018149,0.00028696,0.0,0 STARLINK-3552,1 51813U 22017AX  22199.91667824  .00028696  00000-0  18149-2 0  9992,2 51813  53.2159 178.6989 0001736  56.1528 328.5809 15.08816668  1305,6917.9519999999975,95.439,541.018,538.616,0.0
51813.0,STARLINK-3552,PAYLOAD,2022-07-19 14:00:01,15.08853788,0.0001849,53.2153,175.7072,51.6763,356.2272,-0.0018759,-0.00030031,0.0,0 STARLINK-3552,1 51813U 22017AX  22200.58334491 -.00030031  00000-0 -18759-2 0  9994,2 51813  53.2153 175.7072 0001849  51.6763 356.2272 15.08853788 23542,6917.8380000000025,95.437,540.982,538.424,0.0
51813.0,STARLINK-3552,PAYLOAD,2022-07-19 22:00:00,15.08888492,0.0001754,53.2162,174.2081,56.8794,2.6091,-0.0079642,-0.00125014,0.0,0 STARLINK-3552,1 51813U 22017AX  22200.91667824 -.00125014  00000-0 -79642-2 0  9994,2 51813  53.2162 174.2081 0001754  56.8794   2.6091 15.08888492  1303,6917.732,95.434,540.811,538.384,0.0
51813.0,STARLINK-3552,PAYLOAD,2022-07-20 14:00:01,15.08853418,0.0001805,53.2148,171.218,52.4663,30.2649,-0.0017992999999999,-0.00028821,0.0,0 STARLINK-3552,1 51813U 22017AX  22201.58334491 -.00028821  00000-0 -17993-2 0  9998,2 51813  53.2148 171.2180 0001805  52.4663  30.2649 15.08853418  1304,6917.839,95.437,540.953,538.456,0.0
51813.0,STARLINK-3552,PAYLOAD,2022-07-20 22:00:01,15.08842184,0.0001829,53.2148,169.7207,58.9641,35.4221,-0.0020526,-0.00032809,0.0,0 STARLINK-3552,1 51813U 22017AX  22201.91668981 -.00032809  00000-0 -20526-2 0  9996,2 51813  53.2148 169.7207 0001829  58.9641  35.4221 15.08842184  1300,6917.874,95.437,541.004,538.4730000000002,0.0
51813.0,STARLINK-3552,PAYLOAD,2022-07-21 06:00:00,15.08803243,0.0002041999999999,53.2148,168.2262,54.5467,51.3617,0.00078792,0.00012261,0.0,0 STARLINK-3552,1 51813U 22017AX  22202.25001157  .00012261  00000-0  78792-3 0  9997,2 51813  53.2148 168.2262 0002042  54.5467  51.3617 15.08803243 23797,6917.993,95.44,541.27,538.445,0.0
51813.0,STARLINK-3552,PAYLOAD,2022-07-21 14:00:01,15.08828896,0.0001968,53.2147,166.7287,55.4995,62.0248,-0.0016539,-0.00026506,0.0,0 STARLINK-3552,1 51813U 22017AX  22202.58335648 -.00026506  00000-0 -16539-2 0  9997,2 51813  53.2147 166.7287 0001968  55.4995  62.0248 15.08828896  1301,6917.9140000000025,95.438,541.141,538.418,0.0
51813.0,STARLINK-3552,PAYLOAD,2022-07-21 22:00:00,15.08823454,0.0001975,53.2148,165.2317,60.6569,68.3737,0.00090624,0.00014158,0.0,0 STARLINK-3552,1 51813U 22017AX  22202.91667824  .00014158  00000-0  90624-3 0  9994,2 51813  53.2148 165.2317 0001975  60.6569  68.3737 15.08823454  1300,6917.931,95.439,541.1619999999998,538.43,0.0
51813.0,STARLINK-3552,PAYLOAD,2022-07-22 06:00:00,15.08819569,0.0002126999999999,53.2148,163.7371,55.044,85.574,0.0014854,0.00023418,0.0,0 STARLINK-3552,1 51813U 22017AX  22203.25001157  .00023418  00000-0  14854-2 0  9992,2 51813  53.2148 163.7371 0002127  55.0440  85.5740 15.08819569  1306,6917.943,95.439,541.279,538.336,0.0
51813.0,STARLINK-3552,PAYLOAD,2022-07-22 12:00:00,15.08850929,0.0002083,53.2147,162.6141,54.701,4.5961,-0.001299,-0.00020909,0.0,0 STARLINK-3552,1 51813U 22017AX  22203.50001157 -.00020909  00000-0 -12990-2 0  9993,2 51813  53.2147 162.6141 0002083  54.7010   4.5961 15.08850929 23987,6917.847,95.437,541.153,538.271,0.0
51813.0,STARLINK-3552,PAYLOAD,2022-07-22 22:00:00,15.08856214,0.0002036,53.2152,160.7425,61.5802,102.2179,0.00036943,5.599e-05,0.0,0 STARLINK-3552,1 51813U 22017AX  22203.91667824  .00005599  00000-0  36943-3 0  9998,2 51813  53.2152 160.7425 0002036  61.5802 102.2179 15.08856214 24059,6917.831,95.437,541.104,538.2869999999998,0.0
51813.0,STARLINK-3552,PAYLOAD,2022-07-23 14:00:01,15.08843657,0.0001985,53.2153,157.75,56.4271,130.638,-0.0011454,-0.00018473,0.0,0 STARLINK-3552,1 51813U 22017AX  22204.58335648 -.00018473  00000-0 -11454-2 0  9994,2 51813  53.2153 157.7500 0001985  56.4271 130.6380 15.08843657 24152,6917.869000000002,95.437,541.107,538.361,0.0
51813.0,STARLINK-3552,PAYLOAD,2022-07-23 22:00:00,15.08856986,0.0001940999999999,53.2156,156.2534,60.2608,138.3334,-0.0025843,-0.00041202,0.0,0 STARLINK-3552,1 51813U 22017AX  22204.91667824 -.00041202  00000-0 -25843-2 0  9998,2 51813  53.2156 156.2534 0001941  60.2608 138.3334 15.08856986  1300,6917.828,95.436,541.036,538.351,0.0
51813.0,STARLINK-3552,PAYLOAD,2022-07-24 14:00:01,15.08832833,0.0001919,53.2157,153.2608,56.5152,165.243,-0.00082299,-0.0001336,0.0,0 STARLINK-3552,1 51813U 22017AX  22205.58334491 -.00013360  00000-0 -82299-3 0  9996,2 51813  53.2157 153.2608 0001919  56.5152 165.2430 15.08832833  1308,6917.901999999999,95.438,541.095,538.44,0.0
